0 COSMOS 2298 DEB
1 23433U 94083C   13281.59150376  .00000617  00000-0  21838-3 0  4242
2 23433 074.0106 224.1199 0012216 206.1690 208.1113 14.36675238983145
0 COSMOS 2298 DEB
1 23433U 94083C   13283.68375959  .00000600  00000-0  21259-3 0  4250
2 23433 074.0109 220.2690 0012118 201.7026 229.4535 14.36681568983446
0 COSMOS 2298 DEB
1 23433U 94083C   13285.84060150  .00000631  00000-0  22312-3 0  4260
2 23433 074.0110 216.2989 0012012 197.1850 224.7925 14.36683417983750
0 COSMOS 2298 DEB
1 23433U 94083C   13288.22556950  .00001004  00000-0  34966-3 0  4277
2 23433 074.0111 211.9093 0011918 191.9746 320.2569 14.36687983984095
0 COSMOS 2298 DEB
1 23433U 94083C   13290.24709765  .00000842  00000-0  29457-3 0  4285
2 23433 074.0110 208.1886 0011854 187.6713 335.8676 14.36692033984382
0 COSMOS 2298 DEB
1 23433U 94083C   13292.52377429  .00000809  00000-0  28326-3 0  4294
2 23433 074.0108 203.9984 0011776 182.7613 231.2368 14.36696057984702
0 COSMOS 2298 DEB
1 23433U 94083C   13294.82330204  .00000858  00000-0  29978-3 0  4309
2 23433 074.0105 199.7660 0011682 177.6381 244.9926 14.36700594985033
